NORAD_CAT_ID,OBJECT_NAME,OBJECT_TYPE,EPOCH,MEAN_MOTION,ECCENTRICITY,INCLINATION,RA_OF_ASC_NODE,ARG_OF_PERICENTER,MEAN_ANOMALY,BSTAR,MEAN_MOTION_DOT,MEAN_MOTION_DDOT,TLE_LINE0,TLE_LINE1,TLE_LINE2,SEMIMAJOR_AXIS,PERIOD,APOGEE,PERIGEE,DECAYED
52107.0,STARLINK-3658,PAYLOAD,2024-05-16 11:46:28,15.08865054,0.0001542,53.2156,171.8518,74.5288,285.5875,0.00031001,4.653e-05,0.0,0 STARLINK-3658,1 52107U 22029V   24137.49060400  .00004653  00000-0  31001-3 0  9996,2 52107  53.2156 171.8518 0001542  74.5288 285.5875 15.08865054120810,6917.804,95.436,540.736,538.602,0.0
52107.0,STARLINK-3658,PAYLOAD,2024-05-16 19:43:24,15.08840263,0.0001836,53.2164,170.3597,87.3048,272.8154,-0.0001558,-2.767e-05,0.0,0 STARLINK-3658,1 52107U 22029V   24137.82180615 -.00002767  00000-0 -15580-3 0  9994,2 52107  53.2164 170.3597 0001836  87.3048 272.8154 15.08840263120861,6917.88,95.438,541.015,538.474,0.0
52107.0,STARLINK-3658,PAYLOAD,2024-05-17 11:37:16,15.08827314,0.0001742,53.2188,167.3845,96.148,263.9711,3.0025e-05,1.9e-06,0.0,0 STARLINK-3658,1 52107U 22029V   24138.48421558  .00000190  00000-0  30025-4 0  9999,2 52107  53.2188 167.3845 0001742  96.1480 263.9711 15.08827314120966,6917.919,95.438,540.989,538.579,0.0
52107.0,STARLINK-3658,PAYLOAD,2024-05-17 19:34:11,15.08833616,0.0001712,53.2193,165.8978,100.0894,260.0292,0.00012506,1.703e-05,0.0,0 STARLINK-3658,1 52107U 22029V   24138.81541649  .00001703  00000-0  12506-3 0  9994,2 52107  53.2193 165.8978 0001712 100.0894 260.0292 15.08833616121014,6917.9,95.438,540.949,538.581,0.0
52107.0,STARLINK-3658,PAYLOAD,2024-05-18 05:06:30,15.08851824,0.0001681,53.2186,164.1155,97.8868,262.2315,0.00053371,8.219e-05,0.0,0 STARLINK-3658,1 52107U 22029V   24139.21285327  .00008219  00000-0  53371-3 0  9991,2 52107  53.2186 164.1155 0001681  97.8868 262.2315 15.08851824121071,6917.844,95.437,540.872,538.546,0.0
52107.0,STARLINK-3658,PAYLOAD,2024-05-18 08:17:16,15.08852373,0.0001516,53.2164,163.5217,98.1771,261.9393,0.00074847,0.00011648,0.0,0 STARLINK-3658,1 52107U 22029V   24139.34533426  .00011648  00000-0  74847-3 0  9992,2 52107  53.2164 163.5217 0001516  98.1771 261.9393 15.08852373121097,6917.843,95.437,540.756,538.659,0.0
52107.0,STARLINK-3658,PAYLOAD,2024-05-19 04:57:17,15.08842593,0.0001538,53.2138,159.6527,98.818,261.2986,0.00014709,2.054e-05,0.0,0 STARLINK-3658,1 52107U 22029V   24140.20645606  .00002054  00000-0  14709-3 0  9995,2 52107  53.2138 159.6527 0001538  98.8180 261.2986 15.08842593121222,6917.872,95.437,540.801,538.673,0.0
52107.0,STARLINK-3658,PAYLOAD,2024-05-19 08:08:04,15.08836149,0.0001391,53.2156,159.0613,96.3482,263.7668,9.5006e-06,-1.37e-06,0.0,0 STARLINK-3658,1 52107U 22029V   24140.33893781 -.00000137  00000-0  95006-5 0  9990,2 52107  53.2156 159.0613 0001391  96.3482 263.7668 15.08836149121243,6917.892,95.438,540.719,538.795,0.0
52107.0,STARLINK-3658,PAYLOAD,2024-05-20 07:58:50,15.0884811,0.0001377,53.2156,154.6002,87.3892,272.7258,0.00017455,2.492e-05,0.0,0 STARLINK-3658,1 52107U 22029V   24141.33253402  .00002492  00000-0  17455-3 0  9996,2 52107  53.2156 154.6002 0001377  87.3892 272.7258 15.08848110121397,6917.856,95.437,540.673,538.768,0.0
52107.0,STARLINK-3658,PAYLOAD,2024-05-21 04:38:52,15.08838215,0.0001446,53.2156,150.7346,78.8247,281.2908,5.9235e-05,6.55e-06,0.0,0 STARLINK-3658,1 52107U 22029V   24142.19365822  .00000655  00000-0  59235-4 0  9993,2 52107  53.2156 150.7346 0001446  78.8247 281.2908 15.08838215121528,6917.886,95.438,540.751,538.751,0.0
52107.0,STARLINK-3658,PAYLOAD,2024-05-21 09:25:01,15.08838164,0.0001463,53.2161,149.8424,79.5226,280.5931,9.1412e-05,1.167e-05,0.0,0 STARLINK-3658,1 52107U 22029V   24142.39237912  .00001167  00000-0  91412-4 0  9995,2 52107  53.2161 149.8424 0001463  79.5226 280.5931 15.08838164121558,6917.886,95.438,540.763,538.739,0.0
52107.0,STARLINK-3658,PAYLOAD,2024-05-22 09:15:48,15.08845746,0.000149,53.2165,145.3836,87.8952,272.2211,8.1741e-05,1.013e-05,0.0,0 STARLINK-3658,1 52107U 22029V   24143.38597383  .00001013  00000-0  81741-4 0  9990,2 52107  53.2165 145.3836 0001490  87.8952 272.2211 15.08845746121708,6917.863,95.437,540.759,538.697,0.0
52107.0,STARLINK-3658,PAYLOAD,2024-05-23 04:20:26,15.08837182,0.0001454,53.2179,141.8155,94.1633,265.9525,6.8207e-05,7.98e-06,0.0,0 STARLINK-3658,1 52107U 22029V   24144.18086145  .00000798  00000-0  68207-4 0  9999,2 52107  53.2179 141.8155 0001454  94.1633 265.9525 15.08837182121820,6917.889,95.438,540.76,538.748,0.0
52107.0,STARLINK-3658,PAYLOAD,2024-05-23 07:31:12,15.08838923,0.0001453,53.2176,141.2205,91.949,268.1668,7.6467e-05,9.29e-06,0.0,0 STARLINK-3658,1 52107U 22029V   24144.31334009  .00000929  00000-0  76467-4 0  9992,2 52107  53.2176 141.2205 0001453  91.9490 268.1668 15.08838923121841,6917.884,95.438,540.754,538.744,0.0
52107.0,STARLINK-3658,PAYLOAD,2024-05-24 04:11:16,15.088015,0.0001438,53.2183,137.3514,85.4231,274.6925,-0.00027479,-4.654e-05,0.0,0 STARLINK-3658,1 52107U 22029V   24145.17449982 -.00004654  00000-0 -27479-3 0  9993,2 52107  53.2183 137.3514 0001438  85.4231 274.6925 15.08801500121975,6917.998,95.44,540.858,538.868,0.0
52107.0,STARLINK-3658,PAYLOAD,2024-05-24 08:57:23,15.08838896,0.0001504,53.2181,136.4595,85.444,274.6724,4.4325e-05,4.18e-06,0.0,0 STARLINK-3658,1 52107U 22029V   24145.37319006  .00000418  00000-0  44325-4 0  9990,2 52107  53.2181 136.4595 0001504  85.4440 274.6724 15.08838896122008,6917.884,95.438,540.789,538.708,0.0
52107.0,STARLINK-3658,PAYLOAD,2024-05-25 04:02:00,15.08846302,0.0001472,53.2185,132.8871,63.0744,297.0398,0.00014755,2.061e-05,0.0,0 STARLINK-3658,1 52107U 22029V   24146.16806357  .00002061  00000-0  14755-3 0  9997,2 52107  53.2185 132.8871 0001472  63.0744 297.0398 15.08846302122122,6917.861,95.437,540.744,538.708,0.0
52107.0,STARLINK-3658,PAYLOAD,2024-05-25 08:48:09,15.08851345,0.0001512,53.2173,132.0019,84.3465,275.7699,0.00018542,2.665e-05,0.0,0 STARLINK-3658,1 52107U 22029V   24146.36677897  .00002665  00000-0  18542-3 0  9992,2 52107  53.2173 132.0019 0001512  84.3465 275.7699 15.08851345122159,6917.846,95.437,540.757,538.665,0.0
52107.0,STARLINK-3658,PAYLOAD,2024-05-26 03:52:45,15.08950644,2.02e-05,53.2173,128.4305,333.1831,26.9151,-0.0014116,-0.0002275,0.0,0 STARLINK-3658,1 52107U 22029V   24147.16163340 -.00022750  00000-0 -14116-2 0  9995,2 52107  53.2173 128.4305 0000202 333.1831  26.9151 15.08950644122277,6917.542,95.431,539.547,539.267,0.0
52107.0,STARLINK-3658,PAYLOAD,2024-05-26 08:38:57,15.08831441,0.0001366,53.2175,127.5406,81.5234,278.5913,0.00043293,6.607e-05,0.0,0 STARLINK-3658,1 52107U 22029V   24147.36038838  .00006607  00000-0  43293-3 0  9990,2 52107  53.2175 127.5406 0001366  81.5234 278.5913 15.08831441122302,6917.907,95.438,540.717,538.827,0.0
52107.0,STARLINK-3658,PAYLOAD,2024-05-26 13:25:06,15.08848378,0.0001296,53.2176,126.647,87.1797,272.9343,6.7123e-05,7.81e-06,0.0,0 STARLINK-3658,1 52107U 22029V   24147.55910475  .00000781  00000-0  67123-4 0  9993,2 52107  53.2176 126.6470 0001296  87.1797 272.9343 15.08848378122337,6917.855,95.437,540.616,538.823,0.0
52107.0,STARLINK-3658,PAYLOAD,2024-05-27 08:29:44,15.08847877,0.0001446,53.2174,123.0811,96.5817,263.5339,-3.073e-05,-7.77e-06,0.0,0 STARLINK-3658,1 52107U 22029V   24148.35398420 -.00000777  00000-0 -30730-4 0  9993,2 52107  53.2174 123.0811 0001446  96.5817 263.5339 15.08847877122456,6917.856,95.437,540.722,538.721,0.0
52107.0,STARLINK-3658,PAYLOAD,2024-05-27 14:51:17,15.0884204,0.0001584,53.2177,121.8891,98.7082,261.409,-4.7533e-05,-1.044e-05,0.0,0 STARLINK-3658,1 52107U 22029V   24148.61894733 -.00001044  00000-0 -47533-4 0  9997,2 52107  53.2177 121.8891 0001584  98.7082 261.4090 15.08842040122496,6917.874,95.437,540.835,538.643,0.0
52107.0,STARLINK-3658,PAYLOAD,2024-05-28 08:20:31,15.08840142,0.0001501,53.2176,118.619,105.974,254.1417,-1.6434e-05,-5.5e-06,0.0,0 STARLINK-3658,1 52107U 22029V   24149.34758650 -.00000550  00000-0 -16434-4 0  9992,2 52107  53.2176 118.6190 0001501 105.9740 254.1417 15.08840142122608,6917.88,95.438,540.783,538.707,0.0
52107.0,STARLINK-3658,PAYLOAD,2024-05-29 05:00:32,15.08839343,0.0001428,53.2178,114.7538,102.7748,257.3403,6.433e-05,7.36e-06,0.0,0 STARLINK-3658,1 52107U 22029V   24150.20870568  .00000736  00000-0  64330-4 0  9994,2 52107  53.2178 114.7538 0001428 102.7748 257.3403 15.08839343122739,6917.882,95.438,540.735,538.76,0.0
52107.0,STARLINK-3658,PAYLOAD,2024-05-29 06:35:55,15.08839864,0.0001421,53.2179,114.4564,99.2565,260.8587,6.802e-05,7.95e-06,0.0,0 STARLINK-3658,1 52107U 22029V   24150.27494546  .00000795  00000-0  68020-4 0  9994,2 52107  53.2179 114.4564 0001421  99.2565 260.8587 15.08839864122747,6917.881,95.438,540.729,538.763,0.0
52107.0,STARLINK-3658,PAYLOAD,2024-05-30 06:26:42,15.08842301,0.0001401,53.2182,109.9967,88.3245,271.7907,8.4551e-05,1.058e-05,0.0,0 STARLINK-3658,1 52107U 22029V   24151.26854619  .00001058  00000-0  84551-4 0  9995,2 52107  53.2182 109.9967 0001401  88.3245 271.7907 15.08842301122892,6917.873,95.437,540.708,538.769,0.0
52107.0,STARLINK-3658,PAYLOAD,2024-05-31 06:17:29,15.08844993,0.0001511,53.2189,105.5345,84.276,275.8404,8.8787e-05,1.126e-05,0.0,0 STARLINK-3658,1 52107U 22029V   24152.26214541  .00001126  00000-0  88787-4 0  9991,2 52107  53.2189 105.5345 0001511  84.2760 275.8404 15.08844993123044,6917.865,95.437,540.775,538.685,0.0
52107.0,STARLINK-3658,PAYLOAD,2024-06-01 02:57:30,15.08844901,0.0001342,53.2179,101.6687,102.141,257.9733,2.3274e-05,8.3e-07,0.0,0 STARLINK-3658,1 52107U 22029V   24153.12326534  .00000083  00000-0  23274-4 0  9994,2 52107  53.2179 101.6687 0001342 102.1410 257.9733 15.08844901123172,6917.865,95.437,540.659,538.802,0.0
52107.0,STARLINK-3658,PAYLOAD,2024-06-01 14:05:12,15.08839004,0.0001324,53.2178,99.5883,95.201,264.9133,2.8926e-05,1.72e-06,0.0,0 STARLINK-3658,1 52107U 22029V   24153.58694899  .00000172  00000-0  28926-4 0  9994,2 52107  53.2178  99.5883 0001324  95.2010 264.9133 15.08839004123240,6917.883,95.438,540.664,538.833,0.0
